CCSDS_OMM_VERS = 2.0
CREATION_DATE  = 
ORIGINATOR     = 

OBJECT_NAME    = COSMOS 1743
OBJECT_ID      = 1986-034A
CENTER_NAME    = EARTH
REF_FRAME      = TEME
TIME_SYSTEM    = UTC
MEAN_ELEMENT_THEORY = SGP/SGP4

EPOCH          = 2025-11-18T03:25:16.626720
MEAN_MOTION    = 15.50560724
ECCENTRICITY   = .0006476
INCLINATION    = 82.5369
RA_OF_ASC_NODE = 190.1047
ARG_OF_PERICENTER = 358.9022
MEAN_ANOMALY   = 1.2214

EPHEMERIS_TYPE = 0
CLASSIFICATION_TYPE = U
NORAD_CAT_ID   = 16719
ELEMENT_SET_NO = 999
REV_AT_EPOCH   = 16292
BSTAR          = .48542E-3
MEAN_MOTION_DOT = .27849E-3
MEAN_MOTION_DDOT = 0

CCSDS_OMM_VERS = 2.0
CREATION_DATE  = 
ORIGINATOR     = 

OBJECT_NAME    = SL-14 R/B
OBJECT_ID      = 1986-046B
CENTER_NAME    = EARTH
REF_FRAME      = TEME
TIME_SYSTEM    = UTC
MEAN_ELEMENT_THEORY = SGP/SGP4

EPOCH          = 2025-11-18T03:04:08.584032
MEAN_MOTION    = 14.85450305
ECCENTRICITY   = .0021806
INCLINATION    = 82.4828
RA_OF_ASC_NODE = 185.5563
ARG_OF_PERICENTER = 234.7728
MEAN_ANOMALY   = 125.1447

EPHEMERIS_TYPE = 0
CLASSIFICATION_TYPE = U
NORAD_CAT_ID   = 16792
ELEMENT_SET_NO = 999
REV_AT_EPOCH   = 10984
BSTAR          = .72289E-4
MEAN_MOTION_DOT = .649E-5
MEAN_MOTION_DDOT = 0

CCSDS_OMM_VERS = 2.0
CREATION_DATE  = 
ORIGINATOR     = 

OBJECT_NAME    = SL-14 R/B
OBJECT_ID      = 1986-055B
CENTER_NAME    = EARTH
REF_FRAME      = TEME
TIME_SYSTEM    = UTC
MEAN_ELEMENT_THEORY = SGP/SGP4

EPOCH          = 2025-11-18T04:53:46.400064
MEAN_MOTION    = 14.85494879
ECCENTRICITY   = .0018644
INCLINATION    = 82.5220
RA_OF_ASC_NODE = 231.4241
ARG_OF_PERICENTER = 345.9463
MEAN_ANOMALY   = 127.2833

EPHEMERIS_TYPE = 0
CLASSIFICATION_TYPE = U
NORAD_CAT_ID   = 16882
ELEMENT_SET_NO = 999
REV_AT_EPOCH   = 10281
BSTAR          = .91541E-4
MEAN_MOTION_DOT = .816E-5
MEAN_MOTION_DDOT = 0

CCSDS_OMM_VERS = 2.0
CREATION_DATE  = 
ORIGINATOR     = 

OBJECT_NAME    = AJISAI (EGS)
OBJECT_ID      = 1986-061A
CENTER_NAME    = EARTH
REF_FRAME      = TEME
TIME_SYSTEM    = UTC
MEAN_ELEMENT_THEORY = SGP/SGP4

EPOCH          = 2025-11-18T04:41:55.778208
MEAN_MOTION    = 12.44514143
ECCENTRICITY   = .0011207
INCLINATION    = 50.0095
RA_OF_ASC_NODE = 76.1863
ARG_OF_PERICENTER = 4.1721
MEAN_ANOMALY   = 184.8416

EPHEMERIS_TYPE = 0
CLASSIFICATION_TYPE = U
NORAD_CAT_ID   = 16908
ELEMENT_SET_NO = 999
REV_AT_EPOCH   = 45411
BSTAR          = -.91499E-4
MEAN_MOTION_DOT = -.11E-5
MEAN_MOTION_DDOT = 0

CCSDS_OMM_VERS = 2.0
CREATION_DATE  = 
ORIGINATOR     = 

OBJECT_NAME    = COSMOS 1812
OBJECT_ID      = 1987-003A
CENTER_NAME    = EARTH
REF_FRAME      = TEME
TIME_SYSTEM    = UTC
MEAN_ELEMENT_THEORY = SGP/SGP4

EPOCH          = 2025-11-18T01:02:41.678880
MEAN_MOTION    = 15.70449009
ECCENTRICITY   = .0005619
INCLINATION    = 82.4866
RA_OF_ASC_NODE = 318.6431
ARG_OF_PERICENTER = 125.9560
MEAN_ANOMALY   = 234.2223

EPHEMERIS_TYPE = 0
CLASSIFICATION_TYPE = U
NORAD_CAT_ID   = 17295
ELEMENT_SET_NO = 999
REV_AT_EPOCH   = 12677
BSTAR          = .62785E-3
MEAN_MOTION_DOT = .77381E-3
MEAN_MOTION_DDOT = 0

CCSDS_OMM_VERS = 2.0
CREATION_DATE  = 
ORIGINATOR     = 

OBJECT_NAME    = SL-14 R/B
OBJECT_ID      = 1987-024B
CENTER_NAME    = EARTH
REF_FRAME      = TEME
TIME_SYSTEM    = UTC
MEAN_ELEMENT_THEORY = SGP/SGP4

EPOCH          = 2025-11-18T03:13:33.907008
MEAN_MOTION    = 14.85990659
ECCENTRICITY   = .0016726
INCLINATION    = 82.5295
RA_OF_ASC_NODE = 197.5663
ARG_OF_PERICENTER = 270.7088
MEAN_ANOMALY   = 89.2212

EPHEMERIS_TYPE = 0
CLASSIFICATION_TYPE = U
NORAD_CAT_ID   = 17567
ELEMENT_SET_NO = 999
REV_AT_EPOCH   = 7156
BSTAR          = .75848E-4
MEAN_MOTION_DOT = .688E-5
MEAN_MOTION_DDOT = 0

CCSDS_OMM_VERS = 2.0
CREATION_DATE  = 
ORIGINATOR     = 

OBJECT_NAME    = COSMOS 1833
OBJECT_ID      = 1987-027A
CENTER_NAME    = EARTH
REF_FRAME      = TEME
TIME_SYSTEM    = UTC
MEAN_ELEMENT_THEORY = SGP/SGP4

EPOCH          = 2025-11-18T01:58:41.574432
MEAN_MOTION    = 14.13018775
ECCENTRICITY   = .0021487
INCLINATION    = 70.9139
RA_OF_ASC_NODE = 200.6110
ARG_OF_PERICENTER = 6.3856
MEAN_ANOMALY   = 353.7534

EPHEMERIS_TYPE = 0
CLASSIFICATION_TYPE = U
NORAD_CAT_ID   = 17589
ELEMENT_SET_NO = 999
REV_AT_EPOCH   = 99454
BSTAR          = -.47988E-4
MEAN_MOTION_DOT = -.138E-5
MEAN_MOTION_DDOT = 0

CCSDS_OMM_VERS = 2.0
CREATION_DATE  = 
ORIGINATOR     = 

OBJECT_NAME    = SL-16 R/B
OBJECT_ID      = 1987-027B
CENTER_NAME    = EARTH
REF_FRAME      = TEME
TIME_SYSTEM    = UTC
MEAN_ELEMENT_THEORY = SGP/SGP4

EPOCH          = 2025-11-17T22:57:17.000064
MEAN_MOTION    = 14.17147247
ECCENTRICITY   = .0007269
INCLINATION    = 71.0002
RA_OF_ASC_NODE = 151.9410
ARG_OF_PERICENTER = 285.3516
MEAN_ANOMALY   = 74.6804

EPHEMERIS_TYPE = 0
CLASSIFICATION_TYPE = U
NORAD_CAT_ID   = 17590
ELEMENT_SET_NO = 999
REV_AT_EPOCH   = 99955
BSTAR          = -.5026E-4
MEAN_MOTION_DOT = -.149E-5
MEAN_MOTION_DDOT = 0

CCSDS_OMM_VERS = 2.0
CREATION_DATE  = 
ORIGINATOR     = 

OBJECT_NAME    = SL-14 R/B
OBJECT_ID      = 1987-038B
CENTER_NAME    = EARTH
REF_FRAME      = TEME
TIME_SYSTEM    = UTC
MEAN_ELEMENT_THEORY = SGP/SGP4

EPOCH          = 2025-11-17T16:01:44.640192
MEAN_MOTION    = 14.85227574
ECCENTRICITY   = .001957
INCLINATION    = 82.5038
RA_OF_ASC_NODE = 42.3112
ARG_OF_PERICENTER = 170.6211
MEAN_ANOMALY   = 189.5375

EPHEMERIS_TYPE = 0
CLASSIFICATION_TYPE = U
NORAD_CAT_ID   = 17912
ELEMENT_SET_NO = 999
REV_AT_EPOCH   = 6260
BSTAR          = .97041E-4
MEAN_MOTION_DOT = .859E-5
MEAN_MOTION_DDOT = 0

CCSDS_OMM_VERS = 2.0
CREATION_DATE  = 
ORIGINATOR     = 

OBJECT_NAME    = COSMOS 1844
OBJECT_ID      = 1987-041A
CENTER_NAME    = EARTH
REF_FRAME      = TEME
TIME_SYSTEM    = UTC
MEAN_ELEMENT_THEORY = SGP/SGP4

EPOCH          = 2025-11-18T03:57:34.704000
MEAN_MOTION    = 14.14525943
ECCENTRICITY   = .0031359
INCLINATION    = 70.8993
RA_OF_ASC_NODE = 269.4011
ARG_OF_PERICENTER = 194.5566
MEAN_ANOMALY   = 165.4656

EPHEMERIS_TYPE = 0
CLASSIFICATION_TYPE = U
NORAD_CAT_ID   = 17973
ELEMENT_SET_NO = 999
REV_AT_EPOCH   = 98781
BSTAR          = .12544E-3
MEAN_MOTION_DOT = .193E-5
MEAN_MOTION_DDOT = 0

CCSDS_OMM_VERS = 2.0
CREATION_DATE  = 
ORIGINATOR     = 

OBJECT_NAME    = SL-14 R/B
OBJECT_ID      = 1987-055B
CENTER_NAME    = EARTH
REF_FRAME      = TEME
TIME_SYSTEM    = UTC
MEAN_ELEMENT_THEORY = SGP/SGP4

EPOCH          = 2025-11-17T19:10:25.315968
MEAN_MOTION    = 14.85483415
ECCENTRICITY   = .0021335
INCLINATION    = 82.4982
RA_OF_ASC_NODE = 94.4914
ARG_OF_PERICENTER = 27.2379
MEAN_ANOMALY   = 332.9951

EPHEMERIS_TYPE = 0
CLASSIFICATION_TYPE = U
NORAD_CAT_ID   = 18153
ELEMENT_SET_NO = 999
REV_AT_EPOCH   = 5332
BSTAR          = .91172E-4
MEAN_MOTION_DOT = .814E-5
MEAN_MOTION_DDOT = 0

CCSDS_OMM_VERS = 2.0
CREATION_DATE  = 
ORIGINATOR     = 

OBJECT_NAME    = COSMOS 1867
OBJECT_ID      = 1987-060A
CENTER_NAME    = EARTH
REF_FRAME      = TEME
TIME_SYSTEM    = UTC
MEAN_ELEMENT_THEORY = SGP/SGP4

EPOCH          = 2025-11-18T03:37:25.071168
MEAN_MOTION    = 14.31480634
ECCENTRICITY   = .0013671
INCLINATION    = 65.0102
RA_OF_ASC_NODE = 259.0591
ARG_OF_PERICENTER = 268.6895
MEAN_ANOMALY   = 91.2623

EPHEMERIS_TYPE = 0
CLASSIFICATION_TYPE = U
NORAD_CAT_ID   = 18187
ELEMENT_SET_NO = 999
REV_AT_EPOCH   = 397
BSTAR          = .36781E-4
MEAN_MOTION_DOT = -.2E-7
MEAN_MOTION_DDOT = 0

