COSMOS 1743             
1 16719U 86034A   25322.14255355  .00027849  00000+0  48542-3 0  9994
2 16719  82.5369 190.1047 0006476 358.9022   1.2214 15.50560724162928
SL-14 R/B               
1 16792U 86046B   25322.12787713  .00000649  00000+0  72289-4 0  9999
2 16792  82.4828 185.5563 0021806 234.7728 125.1447 14.85450305109843
SL-14 R/B               
1 16882U 86055B   25322.20400926  .00000816  00000+0  91541-4 0  9994
2 16882  82.5220 231.4241 0018644 345.9463 127.2833 14.85494879102817
AJISAI (EGS)            
1 16908U 86061A   25322.19578447 -.00000110  00000+0 -91499-4 0  9993
2 16908  50.0095  76.1863 0011207   4.1721 184.8416 12.44514143454118
COSMOS 1812             
1 17295U 87003A   25322.04353795  .00077381  00000+0  62785-3 0  9998
2 17295  82.4866 318.6431 0005619 125.9560 234.2223 15.70449009126775
SL-14 R/B               
1 17567U 87024B   25322.13442022  .00000688  00000+0  75848-4 0  9996
2 17567  82.5295 197.5663 0016726 270.7088  89.2212 14.85990659 71569
COSMOS 1833             
1 17589U 87027A   25322.08242563 -.00000138  00000+0 -47988-4 0  9991
2 17589  70.9139 200.6110 0021487   6.3856 353.7534 14.13018775994549
SL-16 R/B               
1 17590U 87027B   25321.95644676 -.00000149  00000+0 -50260-4 0  9998
2 17590  71.0002 151.9410 0007269 285.3516  74.6804 14.17147247999553
SL-14 R/B               
1 17912U 87038B   25321.66787778  .00000859  00000+0  97041-4 0  9991
2 17912  82.5038  42.3112 0019570 170.6211 189.5375 14.85227574 62608
COSMOS 1844             
1 17973U 87041A   25322.16498500  .00000193  00000+0  12544-3 0  9995
2 17973  70.8993 269.4011 0031359 194.5566 165.4656 14.14525943987819
SL-14 R/B               
1 18153U 87055B   25321.79890412  .00000814  00000+0  91172-4 0  9992
2 18153  82.4982  94.4914 0021335  27.2379 332.9951 14.85483415 53326
COSMOS 1867             
1 18187U 87060A   25322.15098462 -.00000002  00000+0  36781-4 0  9996
2 18187  65.0102 259.0591 0013671 268.6895  91.2623 14.31480634  3970
